start=new Date('2022-09-05T00:00:00.000Z').valueOf();
sats=[{"OBJECT_TYPE":"PAYLOAD","TLE_LINE1":"1 46166U 20057BB  22247.49474408  .00001745  00000-0  13598-3 0  9990","OBJECT_NAME":"STARLINK-1615","CENTER_NAME":"EARTH","DECAY_DATE":null,"NORAD_CAT_ID":"46166","OBJECT_ID":"2020-057BB","COUNTRY_CODE":"US","APOAPSIS":"548.014","FILE":"3558050","GP_ID":"211721833","RCS_SIZE":"LARGE","SEMIMAJOR_AXIS":"6925.335","REF_FRAME":"TEME","MEAN_ELEMENT_THEORY":"SGP4","CLASSIFICATION_TYPE":"U","PERIAPSIS":"546.386","MEAN_MOTION":"15.06404412","ELEMENT_SET_NO":"999","MEAN_MOTION_DOT":"0.00001745","EPHEMERIS_TYPE":"0","MEAN_MOTION_DDOT":"0.0000000000000","BSTAR":"0.00013598000000","REV_AT_EPOCH":"11347","TLE_LINE2":"2 46166  53.0561 312.6217 0001175  88.5688 271.5436 15.06404412113475","ARG_OF_PERICENTER":"88.5688","RA_OF_ASC_NODE":"312.6217","MEAN_ANOMALY":"271.5436","TIME_SYSTEM":"UTC","ECCENTRICITY":"0.00011750","EPOCH":"2022-09-04T11:52:25.888512","INCLINATION":"53.0561","LAUNCH_DATE":"2020-08-18","SITE":"AFETR","PERIOD":"95.592"},{"LAUNCH_DATE":"2020-08-18","SITE":"AFETR","PERIOD":"95.591","INCLINATION":"53.0535","ECCENTRICITY":"0.00014120","EPOCH":"2022-09-04T12:13:39.853056","RA_OF_ASC_NODE":"312.5444","MEAN_ANOMALY":"272.5993","TIME_SYSTEM":"UTC","ARG_OF_PERICENTER":"87.5158","MEAN_MOTION":"15.06418840","ELEMENT_SET_NO":"999","MEAN_MOTION_DOT":"0.00007384","EPHEMERIS_TYPE":"0","TLE_LINE2":"2 46167  53.0535 312.5444 0001412  87.5158 272.5993 15.06418840113472","REV_AT_EPOCH":"11347","MEAN_MOTION_DDOT":"0.0000000000000","BSTAR":"0.00051383000000","RCS_SIZE":"LARGE","REF_FRAME":"TEME","SEMIMAJOR_AXIS":"6925.291","PERIAPSIS":"546.178","CLASSIFICATION_TYPE":"U","MEAN_ELEMENT_THEORY":"SGP4","OBJECT_ID":"2020-057BC","APOAPSIS":"548.134","COUNTRY_CODE":"US","GP_ID":"211722137","FILE":"3558056","TLE_LINE1":"1 46167U 20057BC  22247.50948904  .00007384  00000-0  51383-3 0  9999","OBJECT_NAME":"STARLINK-1626","OBJECT_TYPE":"PAYLOAD","CENTER_NAME":"EARTH","DECAY_DATE":null,"NORAD_CAT_ID":"46167"},{"REF_FRAME":"TEME","SEMIMAJOR_AXIS":"6925.341","CLASSIFICATION_TYPE":"U","PERIAPSIS":"546.182","MEAN_ELEMENT_THEORY":"SGP4","RCS_SIZE":"LARGE","EPHEMERIS_TYPE":"0","REV_AT_EPOCH":"11348","TLE_LINE2":"2 46168  53.0537 263.3236 0001479  75.2888 284.8265 15.06402438113489","BSTAR":"0.00022472000000","MEAN_MOTION_DDOT":"0.0000000000000","MEAN_MOTION":"15.06402438","ELEMENT_SET_NO":"999","MEAN_MOTION_DOT":"0.00003067","DECAY_DATE":null,"NORAD_CAT_ID":"46168","TLE_LINE1":"1 46168U 20057BD  22247.35561170  .00003067  00000-0  22472-3 0  9990","CENTER_NAME":"EARTH","OBJECT_TYPE":"PAYLOAD","OBJECT_NAME":"STARLINK-1627","GP_ID":"211715394","FILE":"3557975","OBJECT_ID":"2020-057BD","APOAPSIS":"548.230","COUNTRY_CODE":"US","INCLINATION":"53.0537","EPOCH":"2022-09-04T08:32:04.850880","ECCENTRICITY":"0.00014790","SITE":"AFETR","PERIOD":"95.592","LAUNCH_DATE":"2020-08-18","ARG_OF_PERICENTER":"75.2888","MEAN_ANOMALY":"284.8265","TIME_SYSTEM":"UTC","RA_OF_ASC_NODE":"263.3236"},{"FILE":"3558394","GP_ID":"211748960","OBJECT_ID":"2020-057BE","COUNTRY_CODE":"US","APOAPSIS":"550.564","DECAY_DATE":null,"NORAD_CAT_ID":"46169","OBJECT_NAME":"STARLINK-1628","TLE_LINE1":"1 46169U 20057BE  22247.56934744  .00002049  00000-0  15970-3 0  9999","OBJECT_TYPE":"PAYLOAD","CENTER_NAME":"EARTH","EPHEMERIS_TYPE":"0","MEAN_MOTION_DDOT":"0.0000000000000","BSTAR":"0.00015970000000","TLE_LINE2":"2 46169  53.0021 312.2710 0001269 136.7147 223.3940 15.05594167112776","REV_AT_EPOCH":"11277","ELEMENT_SET_NO":"999","MEAN_MOTION":"15.05594167","MEAN_MOTION_DOT":"0.00002049","SEMIMAJOR_AXIS":"6927.819","REF_FRAME":"TEME","MEAN_ELEMENT_THEORY":"SGP4","PERIAPSIS":"548.805","CLASSIFICATION_TYPE":"U","RCS_SIZE":"LARGE","MEAN_ANOMALY":"223.3940","TIME_SYSTEM":"UTC","RA_OF_ASC_NODE":"312.2710","ARG_OF_PERICENTER":"136.7147","SITE":"AFETR","PERIOD":"95.643","LAUNCH_DATE":"2020-08-18","ECCENTRICITY":"0.00012690","EPOCH":"2022-09-04T13:39:51.618816","INCLINATION":"53.0021"},{"LAUNCH_DATE":"2020-08-18","PERIOD":"95.592","SITE":"AFETR","INCLINATION":"53.0550","EPOCH":"2022-09-04T13:14:42.133920","ECCENTRICITY":"0.00015740","RA_OF_ASC_NODE":"292.3561","MEAN_ANOMALY":"291.6765","TIME_SYSTEM":"UTC","ARG_OF_PERICENTER":"68.4392","MEAN_MOTION_DOT":"-0.00000306","ELEMENT_SET_NO":"999","MEAN_MOTION":"15.06403705","TLE_LINE2":"2 46171  53.0550 292.3561 0001574  68.4392 291.6765 15.06403705114357","REV_AT_EPOCH":"11435","MEAN_MOTION_DDOT":"0.0000000000000","BSTAR":"-0.00000165150000","EPHEMERIS_TYPE":"0","RCS_SIZE":"LARGE","CLASSIFICATION_TYPE":"U","PERIAPSIS":"546.112","MEAN_ELEMENT_THEORY":"SGP4","REF_FRAME":"TEME","SEMIMAJOR_AXIS":"6925.337","APOAPSIS":"548.292","COUNTRY_CODE":"US","OBJECT_ID":"2020-057BG","GP_ID":"211749197","FILE":"3558394","CENTER_NAME":"EARTH","TLE_LINE1":"1 46171U 20057BG  22247.55187655 -.00000306  00000-0 -16515-5 0  9996","OBJECT_TYPE":"PAYLOAD","OBJECT_NAME":"STARLINK-1633","NORAD_CAT_ID":"46171","DECAY_DATE":null},{"INCLINATION":"53.0534","ECCENTRICITY":"0.00011870","EPOCH":"2022-09-04T10:24:51.781824","PERIOD":"95.592","SITE":"AFETR","LAUNCH_DATE":"2020-08-18","ARG_OF_PERICENTER":"79.5598","MEAN_ANOMALY":"280.5524","TIME_SYSTEM":"UTC","RA_OF_ASC_NODE":"292.8768","CLASSIFICATION_TYPE":"U","PERIAPSIS":"546.403","MEAN_ELEMENT_THEORY":"SGP4","REF_FRAME":"TEME","SEMIMAJOR_AXIS":"6925.360","RCS_SIZE":"LARGE","REV_AT_EPOCH":"11433","TLE_LINE2":"2 46172  53.0534 292.8768 0001187  79.5598 280.5524 15.06396348114337","MEAN_MOTION_DDOT":"0.0000000000000","BSTAR":"0.00008946900000","EPHEMERIS_TYPE":"0","ELEMENT_SET_NO":"999","MEAN_MOTION":"15.06396348","MEAN_MOTION_DOT":"0.00001051","NORAD_CAT_ID":"46172","DECAY_DATE":null,"CENTER_NAME":"EARTH","TLE_LINE1":"1 46172U 20057BH  22247.43393266  .00001051  00000-0  89469-4 0  9994","OBJECT_TYPE":"PAYLOAD","OBJECT_NAME":"STARLINK-1635","GP_ID":"211714644","FILE":"3557975","APOAPSIS":"548.047","COUNTRY_CODE":"US","OBJECT_ID":"2020-057BH"},{"RCS_SIZE":"LARGE","SEMIMAJOR_AXIS":"6925.311","REF_FRAME":"TEME","MEAN_ELEMENT_THEORY":"SGP4","PERIAPSIS":"546.234","CLASSIFICATION_TYPE":"U","MEAN_MOTION_DOT":"0.00002235","ELEMENT_SET_NO":"999","MEAN_MOTION":"15.06412175","EPHEMERIS_TYPE":"0","BSTAR":"0.00016883000000","MEAN_MOTION_DDOT":"0.0000000000000","REV_AT_EPOCH":"11281","TLE_LINE2":"2 46173  53.0546 312.3883 0001360  70.9716 289.1420 15.06412175112815","CENTER_NAME":"EARTH","TLE_LINE1":"1 46173U 20057BJ  22247.54633720  .00002235  00000-0  16883-3 0  9993","OBJECT_TYPE":"PAYLOAD","OBJECT_NAME":"STARLINK-1640","DECAY_DATE":null,"NORAD_CAT_ID":"46173","OBJECT_ID":"2020-057BJ","COUNTRY_CODE":"US","APOAPSIS":"548.118","FILE":"3558394","GP_ID":"211748212","ECCENTRICITY":"0.00013600","EPOCH":"2022-09-04T13:06:43.534080","INCLINATION":"53.0546","LAUNCH_DATE":"2020-08-18","SITE":"AFETR","PERIOD":"95.591","ARG_OF_PERICENTER":"70.9716","RA_OF_ASC_NODE":"312.3883","TIME_SYSTEM":"UTC","MEAN_ANOMALY":"289.1420"},{"EPHEMERIS_TYPE":"0","TLE_LINE2":"2 46174  53.0547 312.6522 0001363  72.9489 287.1649 15.06406368112809","REV_AT_EPOCH":"11280","BSTAR":"0.00017756000000","MEAN_MOTION_DDOT":"0.0000000000000","MEAN_MOTION":"15.06406368","MEAN_MOTION_DOT":"0.00002365","ELEMENT_SET_NO":"999","REF_FRAME":"TEME","SEMIMAJOR_AXIS":"6925.329","CLASSIFICATION_TYPE":"U","PERIAPSIS":"546.250","MEAN_ELEMENT_THEORY":"SGP4","RCS_SIZE":"LARGE","GP_ID":"211715636","FILE":"3557975","OBJECT_ID":"2020-057BK","APOAPSIS":"548.138","COUNTRY_CODE":"US","DECAY_DATE":null,"NORAD_CAT_ID":"46174","TLE_LINE1":"1 46174U 20057BK  22247.48737271  .00002365  00000-0  17756-3 0  9997","CENTER_NAME":"EARTH","OBJECT_TYPE":"PAYLOAD","OBJECT_NAME":"STARLINK-1641","SITE":"AFETR","PERIOD":"95.592","LAUNCH_DATE":"2020-08-18","INCLINATION":"53.0547","EPOCH":"2022-09-04T11:41:49.002144","ECCENTRICITY":"0.00013630","TIME_SYSTEM":"UTC","MEAN_ANOMALY":"287.1649","RA_OF_ASC_NODE":"312.6522","ARG_OF_PERICENTER":"72.9489"},{"RA_OF_ASC_NODE":"327.6107","MEAN_ANOMALY":"297.0973","TIME_SYSTEM":"UTC","ARG_OF_PERICENTER":"63.0148","LAUNCH_DATE":"2020-09-03","PERIOD":"95.591","SITE":"AFETR","ECCENTRICITY":"0.00012960","EPOCH":"2022-09-04T11:58:23.471328","INCLINATION":"53.0548","COUNTRY_CODE":"US","APOAPSIS":"548.058","OBJECT_ID":"2020-062A","FILE":"3557853","GP_ID":"211692815","OBJECT_NAME":"STARLINK-1734","TLE_LINE1":"1 46325U 20062A   22247.49888277  .00002605  00000-0  19359-3 0  9993","OBJECT_TYPE":"PAYLOAD","CENTER_NAME":"EARTH","NORAD_CAT_ID":"46325","DECAY_DATE":null,"ELEMENT_SET_NO":"999","MEAN_MOTION":"15.06417207","MEAN_MOTION_DOT":"0.00002605","MEAN_MOTION_DDOT":"0.0000000000000","BSTAR":"0.00019359000000","TLE_LINE2":"2 46325  53.0548 327.6107 0001296  63.0148 297.0973 15.06417207112276","REV_AT_EPOCH":"11227","EPHEMERIS_TYPE":"0","RCS_SIZE":"LARGE","MEAN_ELEMENT_THEORY":"SGP4","PERIAPSIS":"546.263","CLASSIFICATION_TYPE":"U","SEMIMAJOR_AXIS":"6925.296","REF_FRAME":"TEME"},{"RA_OF_ASC_NODE":"12.2682","MEAN_ANOMALY":"285.7278","TIME_SYSTEM":"UTC","ARG_OF_PERICENTER":"74.3859","LAUNCH_DATE":"2020-09-03","SITE":"AFETR","PERIOD":"95.592","INCLINATION":"53.0572","ECCENTRICITY":"0.00013420","EPOCH":"2022-09-04T15:06:12.073824","OBJECT_ID":"2020-062B","APOAPSIS":"548.115","COUNTRY_CODE":"US","GP_ID":"211748724","FILE":"3558394","TLE_LINE1":"1 46326U 20062B   22247.62930641  .00001117  00000-0  93874-4 0  9994","OBJECT_TYPE":"PAYLOAD","OBJECT_NAME":"STARLINK-1654","CENTER_NAME":"EARTH","DECAY_DATE":null,"NORAD_CAT_ID":"46326","ELEMENT_SET_NO":"999","MEAN_MOTION_DOT":"0.00001117","MEAN_MOTION":"15.06409153","EPHEMERIS_TYPE":"0","REV_AT_EPOCH":"11107","TLE_LINE2":"2 46326  53.0572  12.2682 0001342  74.3859 285.7278 15.06409153111075","MEAN_MOTION_DDOT":"0.0000000000000","BSTAR":"0.00009387400000","RCS_SIZE":"LARGE","REF_FRAME":"TEME","SEMIMAJOR_AXIS":"6925.321","CLASSIFICATION_TYPE":"U","PERIAPSIS":"546.256","MEAN_ELEMENT_THEORY":"SGP4"}];
